{
  "type": "FeatureCollection",
  "features": [
    {
      "type": "Feature",
      "properties": {
        "norad_id": 30556,
        "name": "FENGYUN 1C DEB",
        "group": "fengyun-1c-debris",
        "lat": -44.33657458701314,
        "lon": 163.57139259605998,
        "alt_km": 849.7114914573995,
        "timestamp": "2025-12-25T11:37:44.712435+00:00",
        "meta_object_name": "FENGYUN 1C DEB",
        "meta_object_id": "1999-025AKW",
        "meta_epoch": "2025-12-24T22:49:50.027808",
        "meta_mean_motion": 14.0137443,
        "meta_eccentricity": 0.0068741,
        "meta_inclination": 98.7808,
        "meta_ra_of_asc_node": 351.7446,
        "meta_arg_of_pericenter": 203.1698,
        "meta_mean_anomaly": 212.5951,
        "meta_ephemeris_type": 0,
        "meta_classification_type": "U",
        "meta_norad_cat_id": 30556,
        "meta_element_set_no": 999,
        "meta_rev_at_epoch": 96428,
        "meta_bstar": 0.0001862,
        "meta_mean_motion_dot": 2.44e-06,
        "meta_mean_motion_ddot": 0,
        "tle_line1": "1 30556U 99025AKW 25358.95127347  .00000244  00000+0  18620-3 0  9994",
        "tle_line2": "2 30556  98.7808 351.7446 0068741 203.1698 212.5951 14.01374430964287"
      },
      "geometry": {
        "type": "Point",
        "coordinates": [
          163.57139259605998,
          -44.33657458701314
        ]
      }
    },
    {
      "type": "Feature",
      "properties": {
        "norad_id": 30557,
        "name": "FENGYUN 1C DEB",
        "group": "fengyun-1c-debris",
        "lat": 60.33712781616981,
        "lon": 48.54476044941987,
        "alt_km": 885.7025980700773,
        "timestamp": "2025-12-25T11:37:44.712444+00:00",
        "meta_object_name": "FENGYUN 1C DEB",
        "meta_object_id": "1999-025AKX",
        "meta_epoch": "2025-12-22T16:57:14.652576",
        "meta_mean_motion": 14.10841924,
        "meta_eccentricity": 0.00687056,
        "meta_inclination": 98.9195,
        "meta_ra_of_asc_node": 61.7935,
        "meta_arg_of_pericenter": 204.7549,
        "meta_mean_anomaly": 155.032,
        "meta_ephemeris_type": 0,
        "meta_classification_type": "U",
        "meta_norad_cat_id": 30557,
        "meta_element_set_no": 999,
        "meta_rev_at_epoch": 96441,
        "meta_bstar": 0.0012107904,
        "meta_mean_motion_dot": 2.174e-05,
        "meta_mean_motion_ddot": 0,
        "tle_line1": "1 30557U 99025AKX 25356.70641959  .00002174  00000+0  12108-2 0  9994",
        "tle_line2": "2 30557  98.9195  61.7935 0068705 204.7549 155.0320 14.10841924964415"
      },
      "geometry": {
        "type": "Point",
        "coordinates": [
          48.54476044941987,
          60.33712781616981
        ]
      }
    },
    {
      "type": "Feature",
      "properties": {
        "norad_id": 30558,
        "name": "FENGYUN 1C DEB",
        "group": "fengyun-1c-debris",
        "lat": -18.61050364930377,
        "lon": 142.61827196045786,
        "alt_km": 1192.4264702195715,
        "timestamp": "2025-12-25T11:37:44.712454+00:00",
        "meta_object_name": "FENGYUN 1C DEB",
        "meta_object_id": "1999-025AKY",
        "meta_epoch": "2025-12-18T02:35:59.256672",
        "meta_mean_motion": 13.28535877,
        "meta_eccentricity": 0.04271131,
        "meta_inclination": 99.4659,
        "meta_ra_of_asc_node": 132.6231,
        "meta_arg_of_pericenter": 260.3076,
        "meta_mean_anomaly": 94.9567,
        "meta_ephemeris_type": 0,
        "meta_classification_type": "U",
        "meta_norad_cat_id": 30558,
        "meta_element_set_no": 999,
        "meta_rev_at_epoch": 90829,
        "meta_bstar": 0.0032374201,
        "meta_mean_motion_dot": 2.396e-05,
        "meta_mean_motion_ddot": 0,
        "tle_line1": "1 30558U 99025AKY 25352.10832473  .00002396  00000+0  32374-2 0  9991",
        "tle_line2": "2 30558  99.4659 132.6231 0427113 260.3076  94.9567 13.28535877908292"
      },
      "geometry": {
        "type": "Point",
        "coordinates": [
          142.61827196045786,
          -18.61050364930377
        ]
      }
    },
    {
      "type": "Feature",
      "properties": {
        "norad_id": 30560,
        "name": "FENGYUN 1C DEB",
        "group": "fengyun-1c-debris",
        "lat": 78.40618855596703,
        "lon": -139.09177077777846,
        "alt_km": 808.8290476982529,
        "timestamp": "2025-12-25T11:37:44.712465+00:00",
        "meta_object_name": "FENGYUN 1C DEB",
        "meta_object_id": "1999-025ALA",
        "meta_epoch": "2025-12-24T23:36:18.801216",
        "meta_mean_motion": 14.17039005,
        "meta_eccentricity": 0.0115474,
        "meta_inclination": 98.6644,
        "meta_ra_of_asc_node": 352.4115,
        "meta_arg_of_pericenter": 176.4629,
        "meta_mean_anomaly": 248.2335,
        "meta_ephemeris_type": 0,
        "meta_classification_type": "U",
        "meta_norad_cat_id": 30560,
        "meta_element_set_no": 999,
        "meta_rev_at_epoch": 97542,
        "meta_bstar": 0.00022591,
        "meta_mean_motion_dot": 4.42e-06,
        "meta_mean_motion_ddot": 0,
        "tle_line1": "1 30560U 99025ALA 25358.98355094  .00000442  00000+0  22591-3 0  9996",
        "tle_line2": "2 30560  98.6644 352.4115 0115474 176.4629 248.2335 14.17039005975425"
      },
      "geometry": {
        "type": "Point",
        "coordinates": [
          -139.09177077777846,
          78.40618855596703
        ]
      }
    },
    {
      "type": "Feature",
      "properties": {
        "norad_id": 30561,
        "name": "FENGYUN 1C DEB",
        "group": "fengyun-1c-debris",
        "lat": -63.98407786601943,
        "lon": 19.59761632089034,
        "alt_km": 897.462447691837,
        "timestamp": "2025-12-25T11:37:44.712477+00:00",
        "meta_object_name": "FENGYUN 1C DEB",
        "meta_object_id": "1999-025ALB",
        "meta_epoch": "2025-12-24T15:49:33.312576",
        "meta_mean_motion": 14.11285201,
        "meta_eccentricity": 0.00607608,
        "meta_inclination": 98.7247,
        "meta_ra_of_asc_node": 0.4578,
        "meta_arg_of_pericenter": 80.6615,
        "meta_mean_anomaly": 344.563,
        "meta_ephemeris_type": 0,
        "meta_classification_type": "U",
        "meta_norad_cat_id": 30561,
        "meta_element_set_no": 999,
        "meta_rev_at_epoch": 97146,
        "meta_bstar": 0.0003278808,
        "meta_mean_motion_dot": 5.6e-06,
        "meta_mean_motion_ddot": 0,
        "tle_line1": "1 30561U 99025ALB 25358.65941334  .00000560  00000+0  32788-3 0  9999",
        "tle_line2": "2 30561  98.7247   0.4578 0060760  80.6615 344.5630 14.11285201971460"
      },
      "geometry": {
        "type": "Point",
        "coordinates": [
          19.59761632089034,
          -63.98407786601943
        ]
      }
    },
    {
      "type": "Feature",
      "properties": {
        "norad_id": 30562,
        "name": "FENGYUN 1C DEB",
        "group": "fengyun-1c-debris",
        "lat": -15.09085922021089,
        "lon": 69.55565796886266,
        "alt_km": 838.2619910121421,
        "timestamp": "2025-12-25T11:37:44.712488+00:00",
        "meta_object_name": "FENGYUN 1C DEB",
        "meta_object_id": "1999-025ALC",
        "meta_epoch": "2025-12-25T03:25:14.661120",
        "meta_mean_motion": 14.23137128,
        "meta_eccentricity": 0.0059995,
        "meta_inclination": 98.7625,
        "meta_ra_of_asc_node": 66.8317,
        "meta_arg_of_pericenter": 229.6265,
        "meta_mean_anomaly": 163.3449,
        "meta_ephemeris_type": 0,
        "meta_classification_type": "U",
        "meta_norad_cat_id": 30562,
        "meta_element_set_no": 999,
        "meta_rev_at_epoch": 97176,
        "meta_bstar": 0.0016203,
        "meta_mean_motion_dot": 3.684e-05,
        "meta_mean_motion_ddot": 0,
        "tle_line1": "1 30562U 99025ALC 25359.14253080  .00003684  00000+0  16203-2 0  9992",
        "tle_line2": "2 30562  98.7625  66.8317 0059995 229.6265 163.3449 14.23137128971767"
      },
      "geometry": {
        "type": "Point",
        "coordinates": [
          69.55565796886266,
          -15.09085922021089
        ]
      }
    },
    {
      "type": "Feature",
      "properties": {
        "norad_id": 30564,
        "name": "FENGYUN 1C DEB",
        "group": "fengyun-1c-debris",
        "lat": -25.400219083063945,
        "lon": -173.30798685182475,
        "alt_km": 956.1279366140498,
        "timestamp": "2025-12-25T11:37:44.712499+00:00",
        "meta_object_name": "FENGYUN 1C DEB",
        "meta_object_id": "1999-025ALE",
        "meta_epoch": "2025-12-24T07:24:54.030816",
        "meta_mean_motion": 14.05780963,
        "meta_eccentricity": 0.02029283,
        "meta_inclination": 98.7959,
        "meta_ra_of_asc_node": 9.7662,
        "meta_arg_of_pericenter": 86.502,
        "meta_mean_anomaly": 291.0084,
        "meta_ephemeris_type": 0,
        "meta_classification_type": "U",
        "meta_norad_cat_id": 30564,
        "meta_element_set_no": 999,
        "meta_rev_at_epoch": 96458,
        "meta_bstar": 0.00059313782,
        "meta_mean_motion_dot": 1.125e-05,
        "meta_mean_motion_ddot": 0,
        "tle_line1": "1 30564U 99025ALE 25358.30895869  .00001125  00000+0  59314-3 0  9997",
        "tle_line2": "2 30564  98.7959   9.7662 0202928  86.5020 291.0084 14.05780963964580"
      },
      "geometry": {
        "type": "Point",
        "coordinates": [
          -173.30798685182475,
          -25.400219083063945
        ]
      }
    }
  ]
}